AOR-E (EGNOS/PRN 120)   
1 24307U 96053A   09158.10477072 -.00000118  00000-0  10000-3 0  8590
2 24307   0.0677 345.4295 0004999  75.5130 216.9206  1.00271983 46683
IOR-W (EGNOS/PRN 126)   
1 25153U 98006B   09159.01440163  .00000144  00000-0  10000-3 0  5935
2 25153   0.4864   4.0384 0003924  67.8397 214.5821  1.00268448 41570
ARTEMIS (EGNOS/PRN 124) 
1 26863U 01029A   09158.72796299  .00000126  00000-0  10000-3 0  7071
2 26863   7.4285  69.2597 0003986  20.8838  89.5867  1.00276389 30053
MTSAT-1R (MSAS/PRN 129) 
1 28622U 05006A   09159.33891954 -.00000275  00000-0  10000-3 0  1707
2 28622   0.0633 106.8364 0001564 159.1212 252.9637  1.00270135 15660
ANIK F1R (WAAS/PRN 138) 
1 28868U 05036A   09159.51671341 -.00000069  00000-0  10000-3 0  6849
2 28868   0.0089 343.8317 0002524 116.3641 235.5392  1.00271830 13808
GALAXY 15 (WAAS/PRN 135)
1 28884U 05041A   09159.43217176  .00000084  00000-0  10000-3 0  6392
2 28884   0.0054 334.8314 0002640  91.5881 213.1099  1.00273420 13391
MTSAT-2 (MSAS/PRN 137)  
1 28937U 06004A   09159.61758169 -.00000238  00000-0  10000-3 0  5833
2 28937   0.0046 271.4305 0003124 142.5939 210.4386  1.00270333 12147
